{"type": "FeatureCollection", "features": [ {"type": "Feature", "properties": {"norad_id": 37562, "name": "IRIDIUM 33 DEB", "group": "iridium-33-debris", "lat": -63.33859567121529, "lon": 30.817647969650316, "alt_km": 723.8075742782976, "timestamp": "2025-12-25T09:48:52.675265+00:00", "meta": {"OBJECT_NAME": "IRIDIUM 33 DEB", "OBJECT_ID": "1997-051XX", "EPOCH": "2025-12-24T09:26:56.500800", "MEAN_MOTION": 14.56572659, "ECCENTRICITY": 0.0026339, "INCLINATION": 86.3729, "RA_OF_ASC_NODE": 38.5181, "ARG_OF_PERICENTER": 71.2169, "MEAN_ANOMALY": 305.3753, "EPHEMERIS_TYPE": 0, "CLASSIFICATION_TYPE": "U", "NORAD_CAT_ID": 37562, "ELEMENT_SET_NO": 999, "REV_AT_EPOCH": 86498, "BSTAR": 0.0010617703, "MEAN_MOTION_DOT": 4.771e-05, "MEAN_MOTION_DDOT": 0}, "tle": {"line1": "1 37562U 97051XX  25358.39370950  .00004771  00000+0  10618-2 0  9990", "line2": "2 37562  86.3729  38.5181 0026339  71.2169 305.3753 14.56572659864986"}}, "geometry": {"type": "Point", "coordinates": [30.817647969650316, -63.33859567121529]}}, {"type": "Feature", "properties": {"norad_id": 37565, "name": "IRIDIUM 33 DEB", "group": "iridium-33-debris", "lat": -30.42447971233941, "lon": -173.7925350888205, "alt_km": 736.7169114056251, "timestamp": "2025-12-25T09:48:52.675275+00:00", "meta": {"OBJECT_NAME": "IRIDIUM 33 DEB", "OBJECT_ID": "1997-051YA", "EPOCH": "2025-12-22T08:03:11.421504", "MEAN_MOTION": 14.51554431, "ECCENTRICITY": 0.00147764, "INCLINATION": 86.3487, "RA_OF_ASC_NODE": 5.397, "ARG_OF_PERICENTER": 56.1153, "MEAN_ANOMALY": 304.1456, "EPHEMERIS_TYPE": 0, "CLASSIFICATION_TYPE": "U", "NORAD_CAT_ID": 37565, "ELEMENT_SET_NO": 999, "REV_AT_EPOCH": 65976, "BSTAR": 0.00051713633, "MEAN_MOTION_DOT": 2.092e-05, "MEAN_MOTION_DDOT": 0}, "tle": {"line1": "1 37565U 97051YA  25356.33554886  .00002092  00000+0  51714-3 0  9994", "line2": "2 37565  86.3487   5.3970 0014776  56.1153 304.1456 14.51554431659763"}}, "geometry": {"type": "Point", "coordinates": [-173.7925350888205, -30.42447971233941]}}, {"type": "Feature", "properties": {"norad_id": 38017, "name": "IRIDIUM 33 DEB", "group": "iridium-33-debris", "lat": -13.533439466711647, "lon": -18.397472628142555, "alt_km": 775.929856067185, "timestamp": "2025-12-25T09:48:52.675285+00:00", "meta": {"OBJECT_NAME": "IRIDIUM 33 DEB", "OBJECT_ID": "1997-051YD", "EPOCH": "2025-12-24T09:44:09.506112", "MEAN_MOTION": 14.49387584, "ECCENTRICITY": 0.00913995, "INCLINATION": 86.342, "RA_OF_ASC_NODE": 161.1566, "ARG_OF_PERICENTER": 64.0527, "MEAN_ANOMALY": 297.0059, "EPHEMERIS_TYPE": 0, "CLASSIFICATION_TYPE": "U", "NORAD_CAT_ID": 38017, "ELEMENT_SET_NO": 999, "REV_AT_EPOCH": 61571, "BSTAR": 0.0046903358, "MEAN_MOTION_DOT": 0.00018964, "MEAN_MOTION_DDOT": 0}, "tle": {"line1": "1 38017U 97051YD  25358.40566558  .00018964  00000+0  46903-2 0  9994", "line2": "2 38017  86.3420 161.1566 0091399  64.0527 297.0059 14.49387584615710"}}, "geometry": {"type": "Point", "coordinates": [-18.397472628142555, -13.533439466711647]}}, {"type": "Feature", "properties": {"norad_id": 38022, "name": "IRIDIUM 33 DEB", "group": "iridium-33-debris", "lat": -26.82480159563799, "lon": 9.003192688867943, "alt_km": 733.7511857376303, "timestamp": "2025-12-25T09:48:52.675296+00:00", "meta": {"OBJECT_NAME": "IRIDIUM 33 DEB", "OBJECT_ID": "1997-051YJ", "EPOCH": "2025-12-23T07:57:08.773056", "MEAN_MOTION": 14.41313849, "ECCENTRICITY": 0.00453843, "INCLINATION": 86.2683, "RA_OF_ASC_NODE": 11.8042, "ARG_OF_PERICENTER": 16.2864, "MEAN_ANOMALY": 343.9781, "EPHEMERIS_TYPE": 0, "CLASSIFICATION_TYPE": "U", "NORAD_CAT_ID": 38022, "ELEMENT_SET_NO": 999, "REV_AT_EPOCH": 69346, "BSTAR": 0.0010847612, "MEAN_MOTION_DOT": 3.57e-05, "MEAN_MOTION_DDOT": 0}, "tle": {"line1": "1 38022U 97051YJ  25357.33135154  .00003570  00000+0  10848-2 0  9991", "line2": "2 38022  86.2683  11.8042 0045384  16.2864 343.9781 14.41313849693468"}}, "geometry": {"type": "Point", "coordinates": [9.003192688867943, -26.82480159563799]}}, {"type": "Feature", "properties": {"norad_id": 38028, "name": "IRIDIUM 33 DEB", "group": "iridium-33-debris", "lat": -20.188734990712383, "lon": -6.59199435013547, "alt_km": 747.2177188291853, "timestamp": "2025-12-25T09:48:52.675305+00:00", "meta": {"OBJECT_NAME": "IRIDIUM 33 DEB", "OBJECT_ID": "1997-051YQ", "EPOCH": "2025-12-19T17:44:22.316352", "MEAN_MOTION": 14.46188799, "ECCENTRICITY": 0.0030512, "INCLINATION": 86.3252, "RA_OF_ASC_NODE": 357.2262, "ARG_OF_PERICENTER": 99.065, "MEAN_ANOMALY": 261.4007, "EPHEMERIS_TYPE": 0, "CLASSIFICATION_TYPE": "U", "NORAD_CAT_ID": 38028, "ELEMENT_SET_NO": 999, "REV_AT_EPOCH": 65596, "BSTAR": 0.00016660929, "MEAN_MOTION_DOT": 6.2e-06, "MEAN_MOTION_DDOT": 0}, "tle": {"line1": "1 38028U 97051YQ  25353.73914718  .00000620  00000+0  16661-3 0  9991", "line2": "2 38028  86.3252 357.2262 0030512  99.0650 261.4007 14.46188799655964"}}, "geometry": {"type": "Point", "coordinates": [-6.59199435013547, -20.188734990712383]}}, {"type": "Feature", "properties": {"norad_id": 38228, "name": "IRIDIUM 33 DEB", "group": "iridium-33-debris", "lat": 46.98775807349579, "lon": -140.90127082593628, "alt_km": 751.704046839186, "timestamp": "2025-12-25T09:48:52.675315+00:00", "meta": {"OBJECT_NAME": "IRIDIUM 33 DEB", "OBJECT_ID": "1997-051ZC", "EPOCH": "2025-12-20T22:20:09.818016", "MEAN_MOTION": 14.2727844, "ECCENTRICITY": 0.0065198, "INCLINATION": 86.2935, "RA_OF_ASC_NODE": 44.9869, "ARG_OF_PERICENTER": 163.0896, "MEAN_ANOMALY": 14.0405, "EPHEMERIS_TYPE": 0, "CLASSIFICATION_TYPE": "U", "NORAD_CAT_ID": 38228, "ELEMENT_SET_NO": 999, "REV_AT_EPOCH": 84898, "BSTAR": 0.00020665, "MEAN_MOTION_DOT": 5.36e-06, "MEAN_MOTION_DDOT": 0}, "tle": {"line1": "1 38228U 97051ZC  25354.93066919  .00000536  00000+0  20665-3 0  9992", "line2": "2 38228  86.2935  44.9869 0065198 163.0896  14.0405 14.27278440848980"}}, "geometry": {"type": "Point", "coordinates": [-140.90127082593628, 46.98775807349579]}}, {"type": "Feature", "properties": {"norad_id": 38241, "name": "IRIDIUM 33 DEB", "group": "iridium-33-debris", "lat": -52.812747559443, "lon": 169.8700671027637, "alt_km": 720.1086307501482, "timestamp": "2025-12-25T09:48:52.675325+00:00", "meta": {"OBJECT_NAME": "IRIDIUM 33 DEB", "OBJECT_ID": "1997-051ZR", "EPOCH": "2025-12-24T06:20:15.708480", "MEAN_MOTION": 14.54936495, "ECCENTRICITY": 0.00049857, "INCLINATION": 86.3237, "RA_OF_ASC_NODE": 345.5136, "ARG_OF_PERICENTER": 47.7465, "MEAN_ANOMALY": 312.4165, "EPHEMERIS_TYPE": 0, "CLASSIFICATION_TYPE": "U", "NORAD_CAT_ID": 38241, "ELEMENT_SET_NO": 999, "REV_AT_EPOCH": 60368, "BSTAR": 0.00082076089, "MEAN_MOTION_DOT": 3.549e-05, "MEAN_MOTION_DDOT": 0}, "tle": {"line1": "1 38241U 97051ZR  25358.26407070  .00003549  00000+0  82076-3 0  9995", "line2": "2 38241  86.3237 345.5136 0004985  47.7465 312.4165 14.54936495603680"}}, "geometry": {"type": "Point", "coordinates": [169.8700671027637, -52.812747559443]}}, {"type": "Feature", "properties": {"norad_id": 38474, "name": "IRIDIUM 33 DEB", "group": "iridium-33-debris", "lat": 4.464496729701209, "lon": -175.74316647115288, "alt_km": 737.7855942976112, "timestamp": "2025-12-25T09:48:52.675335+00:00", "meta": {"OBJECT_NAME": "IRIDIUM 33 DEB", "OBJECT_ID": "1997-051AAB", "EPOCH": "2025-12-21T07:20:31.212384", "MEAN_MOTION": 14.50718538, "ECCENTRICITY": 0.00276153, "INCLINATION": 86.3426, "RA_OF_ASC_NODE": 6.3307, "ARG_OF_PERICENTER": 61.1056, "MEAN_ANOMALY": 299.2914, "EPHEMERIS_TYPE": 0, "CLASSIFICATION_TYPE": "U", "NORAD_CAT_ID": 38474, "ELEMENT_SET_NO": 999, "REV_AT_EPOCH": 65442, "BSTAR": 0.00039085525, "MEAN_MOTION_DOT": 1.564e-05, "MEAN_MOTION_DDOT": 0}, "tle": {"line1": "1 38474U 97051AAB 25355.30591681  .00001564  00000+0  39086-3 0  9995", "line2": "2 38474  86.3426   6.3307 0027615  61.1056 299.2914 14.50718538654425"}}, "geometry": {"type": "Point", "coordinates": [-175.74316647115288, 4.464496729701209]}}, {"type": "Feature", "properties": {"norad_id": 39777, "name": "IRIDIUM 33 DEB", "group": "iridium-33-debris", "lat": 51.286095958168126, "lon": -16.158727794622035, "alt_km": 657.8418537874895, "timestamp": "2025-12-25T09:48:52.675345+00:00", "meta": {"OBJECT_NAME": "IRIDIUM 33 DEB", "OBJECT_ID": "1997-051AAJ", "EPOCH": "2025-12-24T21:41:15.334944", "MEAN_MOTION": 14.56705579, "ECCENTRICITY": 0.0060532, "INCLINATION": 85.9631, "RA_OF_ASC_NODE": 169.1412, "ARG_OF_PERICENTER": 145.8576, "MEAN_ANOMALY": 214.6549, "EPHEMERIS_TYPE": 0, "CLASSIFICATION_TYPE": "U", "NORAD_CAT_ID": 39777, "ELEMENT_SET_NO": 999, "REV_AT_EPOCH": 60362, "BSTAR": 0.0030691, "MEAN_MOTION_DOT": 0.00014091, "MEAN_MOTION_DDOT": 0}, "tle": {"line1": "1 39777U 97051AAJ 25358.90364971  .00014091  00000+0  30691-2 0  9992", "line2": "2 39777  85.9631 169.1412 0060532 145.8576 214.6549 14.56705579603620"}}, "geometry": {"type": "Point", "coordinates": [-16.158727794622035, 51.286095958168126]}}, {"type": "Feature", "properties": {"norad_id": 39778, "name": "IRIDIUM 33 DEB", "group": "iridium-33-debris", "lat": -40.19758435785015, "lon": -139.20586154083531, "alt_km": 721.804463067896, "timestamp": "2025-12-25T09:48:52.675355+00:00", "meta": {"OBJECT_NAME": "IRIDIUM 33 DEB", "OBJECT_ID": "1997-051AAK", "EPOCH": "2025-12-24T09:41:12.657408", "MEAN_MOTION": 14.54337863, "ECCENTRICITY": 0.00066717, "INCLINATION": 86.3766, "RA_OF_ASC_NODE": 38.1613, "ARG_OF_PERICENTER": 4.9575, "MEAN_ANOMALY": 355.1697, "EPHEMERIS_TYPE": 0, "CLASSIFICATION_TYPE": "U", "NORAD_CAT_ID": 39778, "ELEMENT_SET_NO": 999, "REV_AT_EPOCH": 60862, "BSTAR": 0.00084263219, "MEAN_MOTION_DOT": 3.597e-05, "MEAN_MOTION_DDOT": 0}, "tle": {"line1": "1 39778U 97051AAK 25358.40361872  .00003597  00000+0  84263-3 0  9999", "line2": "2 39778  86.3766  38.1613 0006671   4.9575 355.1697 14.54337863608626"}}, "geometry": {"type": "Point", "coordinates": [-139.20586154083531, -40.19758435785015]}}]}